{
  "type": "FeatureCollection",
  "features": [
    {
      "type": "Feature",
      "properties": {
        "norad_id": 41581,
        "name": "INTELSAT 31 (IS-31)",
        "group": "intelsat",
        "lat": -0.03172577979946862,
        "lon": -175.34539675146985,
        "alt_km": 35780.1103369969,
        "timestamp": "2025-12-02T13:52:16.943417+00:00",
        "meta_object_name": "INTELSAT 31 (IS-31)",
        "meta_object_id": "2016-035A",
        "meta_epoch": "2025-12-02T03:03:32.131872",
        "meta_mean_motion": 1.00269746,
        "meta_eccentricity": 0.00019122,
        "meta_inclination": 0.0151,
        "meta_ra_of_asc_node": 270.5944,
        "meta_arg_of_pericenter": 309.5464,
        "meta_mean_anomaly": 161.9273,
        "meta_ephemeris_type": 0,
        "meta_classification_type": "U",
        "meta_norad_cat_id": 41581,
        "meta_element_set_no": 999,
        "meta_rev_at_epoch": 3470,
        "meta_bstar": 0,
        "meta_mean_motion_dot": -1.3e-06,
        "meta_mean_motion_ddot": 0,
        "tle_line1": "1 41581U 16035A   25336.12745523 -.00000130  00000+0  00000+0 0  9995",
        "tle_line2": "2 41581   0.0151 270.5944 0001912 309.5464 161.9273  1.00269746 34701"
      },
      "geometry": {
        "type": "Point",
        "coordinates": [
          -175.34539675146985,
          -0.03172577979946862
        ]
      }
    },
    {
      "type": "Feature",
      "properties": {
        "norad_id": 41747,
        "name": "INTELSAT 36 (IS-36)",
        "group": "intelsat",
        "lat": 0.010388409880109275,
        "lon": -11.734736133379249,
        "alt_km": 35778.58013952015,
        "timestamp": "2025-12-02T13:52:16.943428+00:00",
        "meta_object_name": "INTELSAT 36 (IS-36)",
        "meta_object_id": "2016-053A",
        "meta_epoch": "2025-12-01T21:50:38.752800",
        "meta_mean_motion": 1.00278088,
        "meta_eccentricity": 0.0001727,
        "meta_inclination": 0.0108,
        "meta_ra_of_asc_node": 342.6383,
        "meta_arg_of_pericenter": 327.7333,
        "meta_mean_anomaly": 156.8269,
        "meta_ephemeris_type": 0,
        "meta_classification_type": "U",
        "meta_norad_cat_id": 41747,
        "meta_element_set_no": 999,
        "meta_rev_at_epoch": 3397,
        "meta_bstar": 0,
        "meta_mean_motion_dot": -5e-08,
        "meta_mean_motion_ddot": 0,
        "tle_line1": "1 41747U 16053A   25335.91017075 -.00000005  00000+0  00000+0 0  9990",
        "tle_line2": "2 41747   0.0108 342.6383 0001727 327.7333 156.8269  1.00278088 33971"
      },
      "geometry": {
        "type": "Point",
        "coordinates": [
          -11.734736133379249,
          0.010388409880109275
        ]
      }
    },
    {
      "type": "Feature",
      "properties": {
        "norad_id": 41945,
        "name": "INTELSAT 32E (IS-32E)",
        "group": "intelsat",
        "lat": -0.01575487509612551,
        "lon": -123.44313331580176,
        "alt_km": 35786.80683909312,
        "timestamp": "2025-12-02T13:52:16.943440+00:00",
        "meta_object_name": "INTELSAT 32E (IS-32E)",
        "meta_object_id": "2017-007B",
        "meta_epoch": "2025-12-02T06:43:50.567232",
        "meta_mean_motion": 1.00270114,
        "meta_eccentricity": 9.69e-06,
        "meta_inclination": 0.0229,
        "meta_ra_of_asc_node": 56.0737,
        "meta_arg_of_pericenter": 303.4679,
        "meta_mean_anomaly": 129.6429,
        "meta_ephemeris_type": 0,
        "meta_classification_type": "U",
        "meta_norad_cat_id": 41945,
        "meta_element_set_no": 999,
        "meta_rev_at_epoch": 3225,
        "meta_bstar": 0,
        "meta_mean_motion_dot": -2.48e-06,
        "meta_mean_motion_ddot": 0,
        "tle_line1": "1 41945U 17007B   25336.28044638 -.00000248  00000+0  00000+0 0  9995",
        "tle_line2": "2 41945   0.0229  56.0737 0000096 303.4679 129.6429  1.00270114 32254"
      },
      "geometry": {
        "type": "Point",
        "coordinates": [
          -123.44313331580176,
          -0.01575487509612551
        ]
      }
    },
    {
      "type": "Feature",
      "properties": {
        "norad_id": 42818,
        "name": "INTELSAT 35E (IS-35E)",
        "group": "intelsat",
        "lat": -0.03800045200306003,
        "lon": -114.75602330648358,
        "alt_km": 35776.55007590208,
        "timestamp": "2025-12-02T13:52:16.943467+00:00",
        "meta_object_name": "INTELSAT 35E (IS-35E)",
        "meta_object_id": "2017-041A",
        "meta_epoch": "2025-12-02T05:03:37.666368",
        "meta_mean_motion": 1.00271554,
        "meta_eccentricity": 0.00022908,
        "meta_inclination": 0.0172,
        "meta_ra_of_asc_node": 313.6715,
        "meta_arg_of_pericenter": 298.407,
        "meta_mean_anomaly": 220.6716,
        "meta_ephemeris_type": 0,
        "meta_classification_type": "U",
        "meta_norad_cat_id": 42818,
        "meta_element_set_no": 999,
        "meta_rev_at_epoch": 3084,
        "meta_bstar": 0,
        "meta_mean_motion_dot": -2.17e-06,
        "meta_mean_motion_ddot": 0,
        "tle_line1": "1 42818U 17041A   25336.21085262 -.00000217  00000+0  00000+0 0  9990",
        "tle_line2": "2 42818   0.0172 313.6715 0002290 298.4070 220.6716  1.00271554 30848"
      },
      "geometry": {
        "type": "Point",
        "coordinates": [
          -114.75602330648358,
          -0.03800045200306003
        ]
      }
    },
    {
      "type": "Feature",
      "properties": {
        "norad_id": 42950,
        "name": "INTELSAT 37E (IS-37E)",
        "group": "intelsat",
        "lat": -0.02116363164108362,
        "lon": -98.25650316359999,
        "alt_km": 35772.56360187893,
        "timestamp": "2025-12-02T13:52:16.943478+00:00",
        "meta_object_name": "INTELSAT 37E (IS-37E)",
        "meta_object_id": "2017-059A",
        "meta_epoch": "2025-12-02T05:08:14.724384",
        "meta_mean_motion": 1.00271005,
        "meta_eccentricity": 0.00033917,
        "meta_inclination": 0.0123,
        "meta_ra_of_asc_node": 291.1678,
        "meta_arg_of_pericenter": 313.6848,
        "meta_mean_anomaly": 245.5408,
        "meta_ephemeris_type": 0,
        "meta_classification_type": "U",
        "meta_norad_cat_id": 42950,
        "meta_element_set_no": 999,
        "meta_rev_at_epoch": 3009,
        "meta_bstar": 0,
        "meta_mean_motion_dot": -1.2e-06,
        "meta_mean_motion_ddot": 0,
        "tle_line1": "1 42950U 17059A   25336.21405931 -.00000120  00000+0  00000+0 0  9998",
        "tle_line2": "2 42950   0.0123 291.1678 0003391 313.6848 245.5408  1.00271005 30097"
      },
      "geometry": {
        "type": "Point",
        "coordinates": [
          -98.25650316359999,
          -0.02116363164108362
        ]
      }
    },
    {
      "type": "Feature",
      "properties": {
        "norad_id": 43632,
        "name": "AZERSPACE 2 (IS-38)",
        "group": "intelsat",
        "lat": -0.0012198619749009538,
        "lon": -35.14616751470917,
        "alt_km": 35783.99661459257,
        "timestamp": "2025-12-02T13:52:16.943490+00:00",
        "meta_object_name": "AZERSPACE 2 (IS-38)",
        "meta_object_id": "2018-074A",
        "meta_epoch": "2025-12-02T03:43:33.564576",
        "meta_mean_motion": 1.00270954,
        "meta_eccentricity": 0.00016795,
        "meta_inclination": 0.003,
        "meta_ra_of_asc_node": 345.5003,
        "meta_arg_of_pericenter": 267.9964,
        "meta_mean_anomaly": 278.7706,
        "meta_ephemeris_type": 0,
        "meta_classification_type": "U",
        "meta_norad_cat_id": 43632,
        "meta_element_set_no": 999,
        "meta_rev_at_epoch": 2647,
        "meta_bstar": 0,
        "meta_mean_motion_dot": 1.57e-06,
        "meta_mean_motion_ddot": 0,
        "tle_line1": "1 43632U 18074A   25336.15524959  .00000157  00000+0  00000+0 0  9998",
        "tle_line2": "2 43632   0.0030 345.5003 0001679 267.9964 278.7706  1.00270954 26473"
      },
      "geometry": {
        "type": "Point",
        "coordinates": [
          -35.14616751470917,
          -0.0012198619749009538
        ]
      }
    },
    {
      "type": "Feature",
      "properties": {
        "norad_id": 43633,
        "name": "HORIZONS-3E",
        "group": "intelsat",
        "lat": -0.002345719286413961,
        "lon": 88.7467029176191,
        "alt_km": 35789.92448832563,
        "timestamp": "2025-12-02T13:52:16.943502+00:00",
        "meta_object_name": "HORIZONS-3E",
        "meta_object_id": "2018-074B",
        "meta_epoch": "2025-12-01T18:02:30.823296",
        "meta_mean_motion": 1.00268041,
        "meta_eccentricity": 7.078e-05,
        "meta_inclination": 0.0287,
        "meta_ra_of_asc_node": 212.6289,
        "meta_arg_of_pericenter": 75.528,
        "meta_mean_anomaly": 222.3695,
        "meta_ephemeris_type": 0,
        "meta_classification_type": "U",
        "meta_norad_cat_id": 43633,
        "meta_element_set_no": 999,
        "meta_rev_at_epoch": 2636,
        "meta_bstar": 0,
        "meta_mean_motion_dot": -9e-08,
        "meta_mean_motion_ddot": 0,
        "tle_line1": "1 43633U 18074B   25335.75174564 -.00000009  00000+0  00000+0 0  9994",
        "tle_line2": "2 43633   0.0287 212.6289 0000707  75.5280 222.3695  1.00268041 26367"
      },
      "geometry": {
        "type": "Point",
        "coordinates": [
          88.7467029176191,
          -0.002345719286413961
        ]
      }
    }
  ]
}